NORAD_CAT_ID,OBJECT_NAME,OBJECT_TYPE,EPOCH,MEAN_MOTION,ECCENTRICITY,INCLINATION,RA_OF_ASC_NODE,ARG_OF_PERICENTER,MEAN_ANOMALY,BSTAR,MEAN_MOTION_DOT,MEAN_MOTION_DDOT,TLE_LINE0,TLE_LINE1,TLE_LINE2,SEMIMAJOR_AXIS,PERIOD,APOGEE,PERIGEE,DECAYED
52649.0,STARLINK-3868,PAYLOAD,2024-02-23 13:26:12,15.08842783,0.0001398,53.219,3.9917,93.0791,267.0361,4.2649e-05,3.91e-06,0.0,0 STARLINK-3868,1 52649U 22052BD  24054.55986540  .00000391  00000-0  42649-4 0  9996,2 52649  53.2190   3.9917 0001398  93.0791 267.0361 15.08842783 98656,6917.872,95.437,540.704,538.77,0.0
52649.0,STARLINK-3868,PAYLOAD,2024-02-23 21:23:08,15.08836098,0.0001526,53.2196,2.506,95.1764,264.9402,-9.1844e-05,-1.749e-05,0.0,0 STARLINK-3868,1 52649U 22052BD  24054.89107002 -.00001749  00000-0 -91844-4 0  9992,2 52649  53.2196   2.5060 0001526  95.1764 264.9402 15.08836098 98702,6917.892,95.438,540.813,538.702,0.0
52649.0,STARLINK-3868,PAYLOAD,2024-02-24 03:44:41,15.08840895,0.0001488,53.22,1.3169,94.3937,265.7225,4.1575e-05,3.74e-06,0.0,0 STARLINK-3868,1 52649U 22052BD  24055.15603135  .00000374  00000-0  41575-4 0  9997,2 52649  53.2200   1.3169 0001488  94.3937 265.7225 15.08840895 99113,6917.878,95.437,540.772,538.713,0.0
52649.0,STARLINK-3868,PAYLOAD,2024-02-24 13:16:59,15.08844968,0.0001562,53.2204,359.5299,86.8079,273.3092,0.00010055,1.313e-05,0.0,0 STARLINK-3868,1 52649U 22052BD  24055.55346824  .00001313  00000-0  10055-3 0  9992,2 52649  53.2204 359.5299 0001562  86.8079 273.3092 15.08844968 98802,6917.865,95.437,540.811,538.65,0.0
52649.0,STARLINK-3868,PAYLOAD,2024-02-25 05:10:50,15.08845067,0.0001549,53.2195,356.5553,88.0144,272.1026,0.00014376,2.001e-05,0.0,0 STARLINK-3868,1 52649U 22052BD  24056.21586666  .00002001  00000-0  14376-3 0  9991,2 52649  53.2195 356.5553 0001549  88.0144 272.1026 15.08845067 99270,6917.865,95.437,540.801,538.658,0.0
52649.0,STARLINK-3868,PAYLOAD,2024-02-25 13:07:46,15.0884112,0.0001662,53.2212,355.0722,88.0074,272.1108,0.00010433,1.373e-05,0.0,0 STARLINK-3868,1 52649U 22052BD  24056.54706990  .00001373  00000-0  10433-3 0  9992,2 52649  53.2212 355.0722 0001662  88.0074 272.1108 15.08841120 98951,6917.877,95.437,540.892,538.592,0.0
52649.0,STARLINK-3868,PAYLOAD,2024-02-26 03:26:14,15.08851716,0.0001471,53.2196,352.3936,89.2703,270.8458,0.00020557,2.986e-05,0.0,0 STARLINK-3868,1 52649U 22052BD  24057.14322287  .00002986  00000-0  20557-3 0  9991,2 52649  53.2196 352.3936 0001471  89.2703 270.8458 15.08851716 99045,6917.845,95.437,540.727,538.692,0.0
52649.0,STARLINK-3868,PAYLOAD,2024-02-27 01:41:38,15.08842825,0.0001539,53.2196,348.2342,87.8188,272.298,-9.7819e-05,-1.845e-05,0.0,0 STARLINK-3868,1 52649U 22052BD  24058.07058997 -.00001845  00000-0 -97819-4 0  9999,2 52649  53.2196 348.2342 0001539  87.8188 272.2980 15.08842825 99559,6917.872,95.437,540.801,538.672,0.0
52649.0,STARLINK-3868,PAYLOAD,2024-02-27 12:49:20,15.08841835,0.0001582,53.2199,346.1495,88.3408,271.7765,-1.8204e-05,-5.78e-06,0.0,0 STARLINK-3868,1 52649U 22052BD  24058.53426973 -.00000578  00000-0 -18204-4 0  9996,2 52649  53.2199 346.1495 0001582  88.3408 271.7765 15.08841835 99259,6917.875,95.437,540.834,538.645,0.0
52649.0,STARLINK-3868,PAYLOAD,2024-02-27 22:21:39,15.08842425,0.0001432,53.2182,344.3655,86.6151,273.5005,9.2622e-05,1.187e-05,0.0,0 STARLINK-3868,1 52649U 22052BD  24058.93170979  .00001187  00000-0  92622-4 0  9993,2 52649  53.2182 344.3655 0001432  86.6151 273.5005 15.08842425 99319,6917.873,95.437,540.729,538.747,0.0
52649.0,STARLINK-3868,PAYLOAD,2024-02-28 04:43:12,15.0883983,0.0001673,53.2194,343.1745,94.1128,266.0055,0.00044751,6.841e-05,0.0,0 STARLINK-3868,1 52649U 22052BD  24059.19667122  .00006841  00000-0  44751-3 0  9994,2 52649  53.2194 343.1745 0001673  94.1128 266.0055 15.08839830 99727,6917.881,95.438,540.903,538.589,0.0
52649.0,STARLINK-3868,PAYLOAD,2024-02-28 22:12:27,15.08836547,0.0001612,53.2187,339.9012,99.5729,260.5445,1.1432e-05,-1.06e-06,0.0,0 STARLINK-3868,1 52649U 22052BD  24059.92531333 -.00000106  00000-0  11432-4 0  9999,2 52649  53.2187 339.9012 0001612  99.5729 260.5445 15.08836547 99463,6917.891,95.438,540.871,538.641,0.0
52649.0,STARLINK-3868,PAYLOAD,2024-02-29 01:23:13,15.08834689,0.0001579,53.2195,339.3068,93.6828,266.4345,4.84e-05,4.82e-06,0.0,0 STARLINK-3868,1 52649U 22052BD  24060.05779561  .00000482  00000-0  48400-4 0  9993,2 52649  53.2195 339.3068 0001579  93.6828 266.4345 15.08834689 99856,6917.897,95.438,540.854,538.669,0.0
52649.0,STARLINK-3868,PAYLOAD,2024-02-29 10:55:32,15.08836433,0.0001581,53.2195,337.525,82.2063,277.9109,3.3368e-05,2.43e-06,0.0,0 STARLINK-3868,1 52649U 22052BD  24060.45523630  .00000243  00000-0  33368-4 0  9993,2 52649  53.2195 337.5250 0001581  82.2063 277.9109 15.08836433 99547,6917.891,95.438,540.85,538.663,0.0
52649.0,STARLINK-3868,PAYLOAD,2024-02-29 22:03:14,15.0883851,0.0001424,53.2188,335.4433,92.7291,267.3865,3.2582e-05,2.31e-06,0.0,0 STARLINK-3868,1 52649U 22052BD  24060.91891497  .00000231  00000-0  32582-4 0  9997,2 52649  53.2188 335.4433 0001424  92.7291 267.3865 15.08838510 99612,6917.885,95.438,540.735,538.765,0.0
52649.0,STARLINK-3868,PAYLOAD,2024-03-01 10:46:18,15.08845599,0.0001497,53.2189,333.065,87.2799,272.8365,3.7117e-05,3.03e-06,0.0,0 STARLINK-3868,1 52649U 22052BD  24061.44883044  .00000303  00000-0  37117-4 0  9994,2 52649  53.2189 333.0650 0001497  87.2799 272.8365 15.08845599100063,6917.863,95.437,540.764,538.693,0.0
52649.0,STARLINK-3868,PAYLOAD,2024-03-01 17:07:51,15.08835517,0.0001541,53.2188,331.8795,89.7853,270.3316,0.00011416,1.529e-05,0.0,0 STARLINK-3868,1 52649U 22052BD  24061.71379618  .00001529  00000-0  11416-3 0  9995,2 52649  53.2188 331.8795 0001541  89.7853 270.3316 15.08835517100109,6917.894,95.438,540.825,538.693,0.0
52649.0,STARLINK-3868,PAYLOAD,2024-03-01 21:54:01,15.08843267,0.0001456,53.2187,330.9894,97.0389,263.0769,8.9794e-05,1.142e-05,0.0,0 STARLINK-3868,1 52649U 22052BD  24061.91251209  .00001142  00000-0  89794-4 0  9998,2 52649  53.2187 330.9894 0001456  97.0389 263.0769 15.08843267 99760,6917.87,95.437,540.743,538.728,0.0
52649.0,STARLINK-3868,PAYLOAD,2024-03-02 01:04:47,15.08845796,0.0001497,53.2189,330.395,99.9339,260.1822,0.00012092,1.637e-05,0.0,0 STARLINK-3868,1 52649U 22052BD  24062.04498937  .00001637  00000-0  12092-3 0  9999,2 52649  53.2189 330.3950 0001497  99.9339 260.1822 15.08845796100153,6917.863,95.437,540.763,538.692,0.0
52649.0,STARLINK-3868,PAYLOAD,2024-03-02 21:44:48,15.08841371,0.0001616,53.2184,326.5286,94.6178,265.4999,5.7819e-05,6.32e-06,0.0,0 STARLINK-3868,1 52649U 22052BD  24062.90611475  .00000632  00000-0  57819-4 0  9999,2 52649  53.2184 326.5286 0001616  94.6178 265.4999 15.08841371 99912,6917.876,95.437,540.859,538.623,0.0
52649.0,STARLINK-3868,PAYLOAD,2024-03-03 02:30:57,15.0884561,0.0001457,53.2184,325.6323,94.3525,265.7633,1.6506e-05,-2.5e-07,0.0,0 STARLINK-3868,1 52649U 22052BD  24063.10483195 -.00000025  00000-0  16506-4 0  9993,2 52649  53.2184 325.6323 0001457  94.3525 265.7633 15.08845610100315,6917.863,95.437,540.736,538.72,0.0
52649.0,STARLINK-3868,PAYLOAD,2024-03-03 10:27:53,15.08840705,0.0001525,53.2189,324.1495,90.0895,270.0272,5.5418e-05,5.94e-06,0.0,0 STARLINK-3868,1 52649U 22052BD  24063.43603503  .00000594  00000-0  55418-4 0  9991,2 52649  53.2189 324.1495 0001525  90.0895 270.0272 15.08840705 99992,6917.878,95.438,540.798,538.688,0.0
52649.0,STARLINK-3868,PAYLOAD,2024-03-04 10:18:39,15.08858701,0.0001948,53.2209,319.6837,77.886,282.2351,7.6816e-05,9.35e-06,0.0,0 STARLINK-3868,1 52649U 22052BD  24064.42962074  .00000935  00000-0  76816-4 0  9996,2 52649  53.2209 319.6837 0001948  77.8860 282.2351 15.08858701100517,6917.823,95.436,541.036,538.341,0.0
52649.0,STARLINK-3868,PAYLOAD,2024-03-04 23:01:46,15.08829378,0.0001451,53.2191,317.3047,90.5293,269.5866,-5.3893e-05,-1.145e-05,0.0,0 STARLINK-3868,1 52649U 22052BD  24064.95956299 -.00001145  00000-0 -53893-4 0  9992,2 52649  53.2191 317.3047 0001451  90.5293 269.5866 15.08829378100221,6917.913,95.438,540.782,538.774,0.0
52649.0,STARLINK-3868,PAYLOAD,2024-03-05 02:12:32,15.0883516,0.0001658,53.2184,316.7082,92.5635,267.5547,-1.0054e-05,-4.48e-06,0.0,0 STARLINK-3868,1 52649U 22052BD  24065.09203848 -.00000448  00000-0 -10054-4 0  9990,2 52649  53.2184 316.7082 0001658  92.5635 267.5547 15.08835160100619,6917.895,95.438,540.907,538.613,0.0
52649.0,STARLINK-3868,PAYLOAD,2024-03-05 16:31:02,15.08810998,0.0001591,53.2183,314.0349,83.8176,276.2997,-0.0001381,-2.483e-05,0.0,0 STARLINK-3868,1 52649U 22052BD  24065.68822608 -.00002483  00000-0 -13810-3 0  9999,2 52649  53.2183 314.0349 0001591  83.8176 276.2997 15.08810998100702,6917.969,95.439,540.935,538.733,0.0
52649.0,STARLINK-3868,PAYLOAD,2024-03-05 22:52:34,15.0883502,0.0001681,53.218,312.8461,97.1646,262.9537,-8.2657e-05,-1.603e-05,0.0,0 STARLINK-3868,1 52649U 22052BD  24065.95317177 -.00001603  00000-0 -82657-4 0  9998,2 52649  53.2180 312.8461 0001681  97.1646 262.9537 15.08835020100749,6917.896,95.438,540.924,538.598,0.0
52649.0,STARLINK-3868,PAYLOAD,2024-03-06 19:32:33,15.08842511,0.0001982,53.2191,308.9781,110.2046,249.9159,0.00023355,3.431e-05,0.0,0 STARLINK-3868,1 52649U 22052BD  24066.81427948  .00003431  00000-0  23355-3 0  9990,2 52649  53.2191 308.9781 0001982 110.2046 249.9159 15.08842511100879,6917.873,95.437,541.109,538.367,0.0
52649.0,STARLINK-3868,PAYLOAD,2024-03-07 01:54:06,15.08855237,0.0001917,53.2177,307.7913,100.506,259.6149,0.0004519,6.914e-05,0.0,0 STARLINK-3868,1 52649U 22052BD  24067.07924201  .00006914  00000-0  45190-3 0  9993,2 52649  53.2177 307.7913 0001917 100.5060 259.6149 15.08855237100543,6917.834,95.437,541.025,538.373,0.0
52649.0,STARLINK-3868,PAYLOAD,2024-03-08 08:06:25,15.08852127,0.0001491,53.2174,302.1435,98.9119,261.2042,0.00015121,2.12e-05,0.0,0 STARLINK-3868,1 52649U 22052BD  24068.33780013  .00002120  00000-0  15121-3 0  9990,2 52649  53.2174 302.1435 0001491  98.9119 261.2042 15.08852127101109,6917.843,95.437,540.74,538.677,0.0
